FENGYUN 1C DEB          
1 35183U 99025DNP 17339.15227575  .00000833  00000-0  16880-3 0  9992
2 35183  98.8567 226.1621 0102699 267.4207  91.5232 14.61104253513233
